[
  {
    "name": "2017",
    "postcode": 2017
  },
  {
    "name": "Waterloo NSW 2017",
    "postcode": 2017
  },
  {
    "name": "Zetland NSW 2017",
    "postcode": 2017
  },
  {
    "name": "2018",
    "postcode": 2018
  },
  {
    "name": "Rosebery NSW 2018",
    "postcode": 2018
  },
  {
    "name": "Eastlakes NSW 2018",
    "postcode": 2018
  },
  {
    "name": "2019",
    "postcode": 2019
  },
  {
    "name": "Botany NSW 2019",
    "postcode": 2019
  },
  {
    "name": "Banksmeadow NSW 2019",
    "postcode": 2019
  },
  {
    "name": "2020",
    "postcode": 2020
  },
  {
    "name": "Mascot NSW 2020",
    "postcode": 2020
  },
  {
    "name": "2021",
    "postcode": 2021
  },
  {
    "name": "Paddington NSW 2021",
    "postcode": 2021
  },
  {
    "name": "Centennial Park NSW 2021",
    "postcode": 2021
  },
  {
    "name": "Moore Park NSW 2021",
    "postcode": 2021
  },
  {
    "name": "2022",
    "postcode": 2022
  },
  {
    "name": "Bondi Junction NSW 2022",
    "postcode": 2022
  },
  {
    "name": "Queens Park NSW 2022",
    "postcode": 2022
  },
  {
    "name": "2023",
    "postcode": 2023
  },
  {
    "name": "Bellevue Hill NSW 2023",
    "postcode": 2023
  },
  {
    "name": "2024",
    "postcode": 2024
  },
  {
    "name": "Waverly NSW 2024",
    "postcode": 2024
  },
  {
    "name": "Bronte NSW 2024",
    "postcode": 2024
  },
  {
    "name": "Charing Cross NSW 2024",
    "postcode": 2024
  },
  {
    "name": "2025",
    "postcode": 2025
  },
  {
    "name": "Woollahra NSW 2025",
    "postcode": 2025
  },
  {
    "name": "2026",
    "postcode": 2026
  },
  {
    "name": "Bondi NSW 2026",
    "postcode": 2026
  },
  {
    "name": "Bondi Beach NSW 2026",
    "postcode": 2026
  },
  {
    "name": "Ben Buckler NSW 2026",
    "postcode": 2026
  },
  {
    "name": "Tamarama NSW 2026",
    "postcode": 2026
  },
  {
    "name": "North Bondi NSW 2026",
    "postcode": 2026
  },
  {
    "name": "2027",
    "postcode": 2027
  },
  {
    "name": "Edgecliff NSW 2027",
    "postcode": 2027
  },
  {
    "name": "Point Piper NSW 2027",
    "postcode": 2027
  },
  {
    "name": "Darling Point NSW 2027",
    "postcode": 2027
  },
  {
    "name": "2028",
    "postcode": 2028
  },
  {
    "name": "Double Bay NSW 2028",
    "postcode": 2028
  },
  {
    "name": "2029",
    "postcode": 2029
  },
  {
    "name": "Rose Bay NSW 2029",
    "postcode": 2029
  },
  {
    "name": "2030",
    "postcode": 2030
  },
  {
    "name": "Rose Bay North NSW 2030",
    "postcode": 2030
  },
  {
    "name": "Vaucluse NSW 2030",
    "postcode": 2030
  },
  {
    "name": "Dover Heights NSW 2030",
    "postcode": 2030
  },
  {
    "name": "Diamond Bay NSW 2030",
    "postcode": 2030
  },
  {
    "name": "Watsons Bay NSW 2030",
    "postcode": 2030
  },
  {
    "name": "2031",
    "postcode": 2031
  },
  {
    "name": "Clovelly NSW 2031",
    "postcode": 2031
  },
  {
    "name": "Randwick NSW 2031",
    "postcode": 2031
  },
  {
    "name": "Clovelly West NSW 2031",
    "postcode": 2031
  },
  {
    "name": "St Pauls NSW 2031",
    "postcode": 2031
  },
  {
    "name": "2032",
    "postcode": 2032
  },
  {
    "name": "Kingsford NSW 2032",
    "postcode": 2032
  },
  {
    "name": "Daceyville NSW 2032",
    "postcode": 2032
  },
  {
    "name": "2033",
    "postcode": 2033
  },
  {
    "name": "Kensington NSW 2033",
    "postcode": 2033
  },
  {
    "name": "2034",
    "postcode": 2034
  },
  {
    "name": "Coogee NSW 2034",
    "postcode": 2034
  },
  {
    "name": "South Coogee NSW 2034",
    "postcode": 2034
  },
  {
    "name": "2035",
    "postcode": 2035
  },
  {
    "name": "Pagewood NSW 2035",
    "postcode": 2035
  },
  {
    "name": "Maroubra NSW 2035",
    "postcode": 2035
  },
  {
    "name": "2036",
    "postcode": 2036
  },
  {
    "name": "Little Bay NSW 2036",
    "postcode": 2036
  },
  {
    "name": "Eastgardens NSW 2036",
    "postcode": 2036
  },
  {
    "name": "Chifley NSW 2036",
    "postcode": 2036
  },
  {
    "name": "Hillsdale NSW 2036",
    "postcode": 2036
  },
  {
    "name": "Matraville NSW 2036",
    "postcode": 2036
  },
  {
    "name": "Malabar NSW 2036",
    "postcode": 2036
  }
]
